ONEWEB-0205             
1 48226U 21031S   25266.72550179  .00000077  00000+0  17419-3 0  9994
2 48226  87.9077 342.7555 0002021 102.7963 257.3393 13.14504895213262
ONEWEB-0206             
1 48227U 21031T   25266.92689441 -.00000310  00000+0 -87029-3 0  9998
2 48227  87.9085 342.6989 0001568  97.2937 262.8371 13.14503022213242
ONEWEB-0182             
1 48228U 21031U   25266.69379211 -.00000150  00000+0 -43862-3 0  9993
2 48228  87.9077 342.7875 0001989  94.4997 265.6360 13.14503992213426
ONEWEB-0186             
1 48229U 21031V   25266.93323919 -.00000238  00000+0 -67689-3 0  9995
2 48229  87.9086 342.7039 0001958 101.9798 258.1552 13.14504672213402
ONEWEB-0181             
1 48230U 21031W   25266.91104774  .00000169  00000+0  42216-3 0  9991
2 48230  87.9065 342.7768 0001886 105.4088 254.7250 13.14504120213259
ONEWEB-0188             
1 48231U 21031X   25266.64462063 -.00000070  00000+0 -22312-3 0  9998
2 48231  87.9078 342.8236 0001883  99.7555 260.3788 13.14504607213121
ONEWEB-0220             
1 48232U 21031Y   25266.91263749  .00000163  00000+0  40457-3 0  9990
2 48232  87.9081 342.7094 0002073 100.8729 259.2634 13.14502497213421
ONEWEB-0165             
1 48233U 21031Z   25266.94117197 -.00000137  00000+0 -40275-3 0  9990
2 48233  87.9065 342.7427 0002005 104.3142 255.8211 13.14503245213387
